STARLINK-34361          
1 64450U 25130N   26068.43530166  .00023388  00000+0  79882-3 0  9990
2 64450  53.1600  89.7525 0000923  79.2623 280.8482 15.30219180 41833
2025-313BE              
1 67482U 25313BE  26068.69721505  .00077178  00000+0  26504-2 0  9996
2 67482  97.3989 145.3568 0007208 335.3714  24.7181 15.29801687  7972
